start=new Date('2022-06-19T00:00:00.000Z').valueOf();
sats=[{"MEAN_MOTION_DOT":"-0.00020558","RA_OF_ASC_NODE":"64.9840","PERIAPSIS":"348.158","SEMIMAJOR_AXIS":"6727.739","TLE_LINE2":"2 52480  53.2165  64.9840 0002148  35.4386 110.9432 15.73254953  1306","CENTER_NAME":"EARTH","MEAN_ELEMENT_THEORY":"SGP4","APOAPSIS":"351.049","NORAD_CAT_ID":"52480","SITE":"AFETR","TIME_SYSTEM":"UTC","LAUNCH_DATE":"2022-05-06","PERIOD":"91.530","MEAN_MOTION":"15.73254953","CLASSIFICATION_TYPE":"U","BSTAR":"-0.00014205000000","ECCENTRICITY":"0.00021480","MEAN_MOTION_DDOT":"0.0000000000000","GP_ID":"206291206","RCS_SIZE":"LARGE","OBJECT_ID":"2022-049AF","REF_FRAME":"TEME","TLE_LINE1":"1 52480U 22049AF  22167.08334491 -.00020558  00000-0 -14205-3 0  9993","EPHEMERIS_TYPE":"0","FILE":"3497002","DECAY_DATE":null,"OBJECT_TYPE":"PAYLOAD","REV_AT_EPOCH":"130","MEAN_ANOMALY":"110.9432","ELEMENT_SET_NO":"999","ARG_OF_PERICENTER":"35.4386","COUNTRY_CODE":"US","INCLINATION":"53.2165","EPOCH":"2022-06-16T02:00:01.000224","OBJECT_NAME":"STARLINK-3839"},{"ECCENTRICITY":"0.00018950","GP_ID":"206291752","MEAN_MOTION_DDOT":"0.0000000000000","RCS_SIZE":"LARGE","OBJECT_ID":"2022-049AG","TIME_SYSTEM":"UTC","LAUNCH_DATE":"2022-05-06","PERIOD":"91.532","MEAN_MOTION":"15.73222980","CLASSIFICATION_TYPE":"U","BSTAR":"0.00029052000000","TLE_LINE2":"2 52481  53.2168  64.9910 0001895  27.7487 116.1095 15.73222980  1300","MEAN_ELEMENT_THEORY":"SGP4","CENTER_NAME":"EARTH","APOAPSIS":"350.970","NORAD_CAT_ID":"52481","SITE":"AFETR","MEAN_MOTION_DOT":"0.00040390","RA_OF_ASC_NODE":"64.9910","PERIAPSIS":"348.420","SEMIMAJOR_AXIS":"6727.830","COUNTRY_CODE":"US","INCLINATION":"53.2168","OBJECT_NAME":"STARLINK-3842","EPOCH":"2022-06-16T02:00:01.000224","MEAN_ANOMALY":"116.1095","ELEMENT_SET_NO":"999","ARG_OF_PERICENTER":"27.7487","EPHEMERIS_TYPE":"0","FILE":"3497002","DECAY_DATE":null,"OBJECT_TYPE":"PAYLOAD","REV_AT_EPOCH":"130","REF_FRAME":"TEME","TLE_LINE1":"1 52481U 22049AG  22167.08334491  .00040390  00000-0  29052-3 0  9994"},{"NORAD_CAT_ID":"52482","SITE":"AFETR","TLE_LINE2":"2 52482  53.2166  64.9784 0001698  25.3061 123.6477 15.73194514  1309","APOAPSIS":"350.918","MEAN_ELEMENT_THEORY":"SGP4","CENTER_NAME":"EARTH","PERIAPSIS":"348.633","SEMIMAJOR_AXIS":"6727.911","MEAN_MOTION_DOT":"0.00084595","RA_OF_ASC_NODE":"64.9784","OBJECT_ID":"2022-049AH","ECCENTRICITY":"0.00016980","GP_ID":"206291452","RCS_SIZE":"MEDIUM","MEAN_MOTION_DDOT":"0.0000000000000","MEAN_MOTION":"15.73194514","BSTAR":"0.00060124000000","CLASSIFICATION_TYPE":"U","TIME_SYSTEM":"UTC","PERIOD":"91.533","LAUNCH_DATE":"2022-05-06","REV_AT_EPOCH":"130","DECAY_DATE":null,"EPHEMERIS_TYPE":"0","FILE":"3497002","OBJECT_TYPE":"PAYLOAD","TLE_LINE1":"1 52482U 22049AH  22167.08334491  .00084595  00000-0  60124-3 0  9995","REF_FRAME":"TEME","EPOCH":"2022-06-16T02:00:01.000224","OBJECT_NAME":"STARLINK-3813","COUNTRY_CODE":"US","INCLINATION":"53.2166","ARG_OF_PERICENTER":"25.3061","MEAN_ANOMALY":"123.6477","ELEMENT_SET_NO":"999"},{"TLE_LINE1":"1 52483U 22049AJ  22167.08334491  .00019149  00000-0  13984-3 0  9991","REF_FRAME":"TEME","REV_AT_EPOCH":"130","OBJECT_TYPE":"PAYLOAD","DECAY_DATE":null,"EPHEMERIS_TYPE":"0","FILE":"3497002","ARG_OF_PERICENTER":"32.0473","ELEMENT_SET_NO":"999","MEAN_ANOMALY":"113.5416","OBJECT_NAME":"STARLINK-3875","EPOCH":"2022-06-16T02:00:01.000224","INCLINATION":"53.2165","COUNTRY_CODE":"US","SEMIMAJOR_AXIS":"6727.559","PERIAPSIS":"348.463","RA_OF_ASC_NODE":"64.9852","MEAN_MOTION_DOT":"0.00019149","SITE":"AFETR","NORAD_CAT_ID":"52483","APOAPSIS":"350.386","MEAN_ELEMENT_THEORY":"SGP4","CENTER_NAME":"EARTH","TLE_LINE2":"2 52483  53.2165  64.9852 0001429  32.0473 113.5416 15.73317862  1303","BSTAR":"0.00013984000000","CLASSIFICATION_TYPE":"U","MEAN_MOTION":"15.73317862","PERIOD":"91.526","LAUNCH_DATE":"2022-05-06","TIME_SYSTEM":"UTC","OBJECT_ID":"2022-049AJ","GP_ID":"206291655","MEAN_MOTION_DDOT":"0.0000000000000","RCS_SIZE":"LARGE","ECCENTRICITY":"0.00014290"},{"TLE_LINE1":"1 52484U 22049AK  22167.08334491  .00082169  00000-0  58441-3 0  9991","REF_FRAME":"TEME","REV_AT_EPOCH":"130","DECAY_DATE":null,"EPHEMERIS_TYPE":"0","FILE":"3497002","OBJECT_TYPE":"PAYLOAD","ARG_OF_PERICENTER":"37.7191","MEAN_ANOMALY":"111.8659","ELEMENT_SET_NO":"999","OBJECT_NAME":"STARLINK-3887","EPOCH":"2022-06-16T02:00:01.000224","COUNTRY_CODE":"US","INCLINATION":"53.2179","PERIAPSIS":"348.576","SEMIMAJOR_AXIS":"6727.924","MEAN_MOTION_DOT":"0.00082169","RA_OF_ASC_NODE":"64.9805","NORAD_CAT_ID":"52484","SITE":"AFETR","TLE_LINE2":"2 52484  53.2179  64.9805 0001803  37.7191 111.8659 15.73189732  1305","APOAPSIS":"351.002","MEAN_ELEMENT_THEORY":"SGP4","CENTER_NAME":"EARTH","MEAN_MOTION":"15.73189732","BSTAR":"0.00058441000000","CLASSIFICATION_TYPE":"U","TIME_SYSTEM":"UTC","PERIOD":"91.534","LAUNCH_DATE":"2022-05-06","OBJECT_ID":"2022-049AK","ECCENTRICITY":"0.00018030","GP_ID":"206291552","RCS_SIZE":"LARGE","MEAN_MOTION_DDOT":"0.0000000000000"},{"MEAN_MOTION":"15.73241259","BSTAR":"0.00013393000000","CLASSIFICATION_TYPE":"U","TIME_SYSTEM":"UTC","LAUNCH_DATE":"2022-05-06","PERIOD":"91.531","OBJECT_ID":"2022-049AL","ECCENTRICITY":"0.00018150","RCS_SIZE":"MEDIUM","GP_ID":"206291818","MEAN_MOTION_DDOT":"0.0000000000000","PERIAPSIS":"348.421","SEMIMAJOR_AXIS":"6727.778","MEAN_MOTION_DOT":"0.00018250","RA_OF_ASC_NODE":"64.9806","NORAD_CAT_ID":"52485","SITE":"AFETR","TLE_LINE2":"2 52485  53.2168  64.9806 0001815  32.2677 116.0332 15.73241259  1305","APOAPSIS":"350.864","MEAN_ELEMENT_THEORY":"SGP4","CENTER_NAME":"EARTH","ARG_OF_PERICENTER":"32.2677","MEAN_ANOMALY":"116.0332","ELEMENT_SET_NO":"999","EPOCH":"2022-06-16T02:00:01.000224","OBJECT_NAME":"STARLINK-3913","COUNTRY_CODE":"US","INCLINATION":"53.2168","TLE_LINE1":"1 52485U 22049AL  22167.08334491  .00018250  00000-0  13393-3 0  9999","REF_FRAME":"TEME","REV_AT_EPOCH":"130","DECAY_DATE":null,"EPHEMERIS_TYPE":"0","FILE":"3497002","OBJECT_TYPE":"PAYLOAD"},{"RA_OF_ASC_NODE":"64.9765","MEAN_MOTION_DOT":"-0.00019795","SEMIMAJOR_AXIS":"6727.735","PERIAPSIS":"348.307","CENTER_NAME":"EARTH","MEAN_ELEMENT_THEORY":"SGP4","APOAPSIS":"350.893","TLE_LINE2":"2 52486  53.2180  64.9765 0001922  31.3441 119.4782 15.73256285  1303","NORAD_CAT_ID":"52486","SITE":"AFETR","PERIOD":"91.530","LAUNCH_DATE":"2022-05-06","TIME_SYSTEM":"UTC","BSTAR":"-0.00013660000000","CLASSIFICATION_TYPE":"U","MEAN_MOTION":"15.73256285","GP_ID":"206291107","MEAN_MOTION_DDOT":"0.0000000000000","RCS_SIZE":"LARGE","ECCENTRICITY":"0.00019220","OBJECT_ID":"2022-049AM","REF_FRAME":"TEME","TLE_LINE1":"1 52486U 22049AM  22167.08334491 -.00019795  00000-0 -13660-3 0  9994","OBJECT_TYPE":"PAYLOAD","FILE":"3497002","EPHEMERIS_TYPE":"0","DECAY_DATE":null,"REV_AT_EPOCH":"130","ELEMENT_SET_NO":"999","MEAN_ANOMALY":"119.4782","ARG_OF_PERICENTER":"31.3441","INCLINATION":"53.2180","COUNTRY_CODE":"US","OBJECT_NAME":"STARLINK-3918","EPOCH":"2022-06-16T02:00:01.000224"},{"APOAPSIS":"351.001","CENTER_NAME":"EARTH","MEAN_ELEMENT_THEORY":"SGP4","TLE_LINE2":"2 52487  53.2166  64.9811 0001814  28.8612 118.8334 15.73192989  1307","NORAD_CAT_ID":"52487","SITE":"AFETR","RA_OF_ASC_NODE":"64.9811","MEAN_MOTION_DOT":"0.00083850","SEMIMAJOR_AXIS":"6727.915","PERIAPSIS":"348.560","GP_ID":"206291309","MEAN_MOTION_DDOT":"0.0000000000000","RCS_SIZE":"MEDIUM","ECCENTRICITY":"0.00018140","OBJECT_ID":"2022-049AN","LAUNCH_DATE":"2022-05-06","PERIOD":"91.534","TIME_SYSTEM":"UTC","CLASSIFICATION_TYPE":"U","BSTAR":"0.00059607000000","MEAN_MOTION":"15.73192989","OBJECT_TYPE":"PAYLOAD","DECAY_DATE":null,"FILE":"3497002","EPHEMERIS_TYPE":"0","REV_AT_EPOCH":"130","REF_FRAME":"TEME","TLE_LINE1":"1 52487U 22049AN  22167.08334491  .00083850  00000-0  59607-3 0  9997","INCLINATION":"53.2166","COUNTRY_CODE":"US","OBJECT_NAME":"STARLINK-3902","EPOCH":"2022-06-16T02:00:01.000224","ELEMENT_SET_NO":"999","MEAN_ANOMALY":"118.8334","ARG_OF_PERICENTER":"28.8612"},{"RA_OF_ASC_NODE":"64.9749","MEAN_MOTION_DOT":"0.00049136","SEMIMAJOR_AXIS":"6727.853","PERIAPSIS":"348.550","APOAPSIS":"350.886","MEAN_ELEMENT_THEORY":"SGP4","CENTER_NAME":"EARTH","TLE_LINE2":"2 52488  53.2184  64.9749 0001736  31.1027 120.9881 15.73214776  1308","NORAD_CAT_ID":"52488","SITE":"AFETR","PERIOD":"91.532","LAUNCH_DATE":"2022-05-06","TIME_SYSTEM":"UTC","BSTAR":"0.00035224000000","CLASSIFICATION_TYPE":"U","MEAN_MOTION":"15.73214776","GP_ID":"206291207","RCS_SIZE":"MEDIUM","MEAN_MOTION_DDOT":"0.0000000000000","ECCENTRICITY":"0.00017360","OBJECT_ID":"2022-049AP","REF_FRAME":"TEME","TLE_LINE1":"1 52488U 22049AP  22167.08334491  .00049136  00000-0  35224-3 0  9996","OBJECT_TYPE":"PAYLOAD","DECAY_DATE":null,"FILE":"3497002","EPHEMERIS_TYPE":"0","REV_AT_EPOCH":"130","ELEMENT_SET_NO":"999","MEAN_ANOMALY":"120.9881","ARG_OF_PERICENTER":"31.1027","INCLINATION":"53.2184","COUNTRY_CODE":"US","OBJECT_NAME":"STARLINK-3892","EPOCH":"2022-06-16T02:00:01.000224"},{"ARG_OF_PERICENTER":"32.0960","ELEMENT_SET_NO":"999","MEAN_ANOMALY":"118.0894","OBJECT_NAME":"STARLINK-3923","EPOCH":"2022-06-16T02:00:01.000224","INCLINATION":"53.2169","COUNTRY_CODE":"US","TLE_LINE1":"1 52489U 22049AQ  22167.08334491  .00039890  00000-0  28694-3 0  9996","REF_FRAME":"TEME","REV_AT_EPOCH":"130","OBJECT_TYPE":"PAYLOAD","FILE":"3497002","EPHEMERIS_TYPE":"0","DECAY_DATE":null,"CLASSIFICATION_TYPE":"U","BSTAR":"0.00028694000000","MEAN_MOTION":"15.73227694","LAUNCH_DATE":"2022-05-06","PERIOD":"91.532","TIME_SYSTEM":"UTC","OBJECT_ID":"2022-049AQ","GP_ID":"206291753","MEAN_MOTION_DDOT":"0.0000000000000","RCS_SIZE":"MEDIUM","ECCENTRICITY":"0.00017860","SEMIMAJOR_AXIS":"6727.816","PERIAPSIS":"348.480","RA_OF_ASC_NODE":"64.9775","MEAN_MOTION_DOT":"0.00039890","SITE":"AFETR","NORAD_CAT_ID":"52489","MEAN_ELEMENT_THEORY":"SGP4","CENTER_NAME":"EARTH","APOAPSIS":"350.883","TLE_LINE2":"2 52489  53.2169  64.9775 0001786  32.0960 118.0894 15.73227694  1307"}];
